FENGYUN 1C DEB          
1 30318U 99025AAF 17345.52908508  .00008209  00000-0  11201-2 0  9993
2 30318  98.9581 188.4780 0024281 104.2882 256.1024 14.78737944571035
